[{"OBJECT_NAME":"STARLINK-32438","OBJECT_ID":"2024-196R","EPOCH":"2026-03-09T08:47:33.772704","MEAN_MOTION":15.30191866,"ECCENTRICITY":0.00012377,"INCLINATION":53.1606,"RA_OF_ASC_NODE":103.0837,"ARG_OF_PERICENTER":82.1587,"MEAN_ANOMALY":277.9555,"EPHEMERIS_TYPE":0,"CLASSIFICATION_TYPE":"U","NORAD_CAT_ID":61722,"ELEMENT_SET_NO":999,"REV_AT_EPOCH":7710,"BSTAR":5.6975843e-5,"MEAN_MOTION_DOT":1.328e-5,"MEAN_MOTION_DDOT":0},{"OBJECT_NAME":"ASRTU-1 (AO-123)","OBJECT_ID":"2024-199AY","EPOCH":"2026-03-09T22:36:42.151392","MEAN_MOTION":15.34070057,"ECCENTRICITY":0.0012786,"INCLINATION":97.3152,"RA_OF_ASC_NODE":298.5256,"ARG_OF_PERICENTER":309.3392,"MEAN_ANOMALY":50.6717,"EPHEMERIS_TYPE":0,"CLASSIFICATION_TYPE":"U","NORAD_CAT_ID":61781,"ELEMENT_SET_NO":999,"REV_AT_EPOCH":11870,"BSTAR":0.00032267684,"MEAN_MOTION_DOT":0.00010589,"MEAN_MOTION_DDOT":0}]
